[{"OBJECT_NAME":"ONEWEB-0424","OBJECT_ID":"2021-132AE","EPOCH":"2025-09-11T03:04:17.549760","MEAN_MOTION":13.18685707,"ECCENTRICITY":0.00018202,"INCLINATION":87.9186,"RA_OF_ASC_NODE":30.8636,"ARG_OF_PERICENTER":110.9519,"MEAN_ANOMALY":249.1808,"EPHEMERIS_TYPE":0,"CLASSIFICATION_TYPE":"U","NORAD_CAT_ID":50497,"ELEMENT_SET_NO":999,"REV_AT_EPOCH":18486,"BSTAR":5.8069242e-5,"MEAN_MOTION_DOT":3.6e-7,"MEAN_MOTION_DDOT":0},{"OBJECT_NAME":"ONEWEB-0426","OBJECT_ID":"2021-132AF","EPOCH":"2025-09-11T02:07:16.045824","MEAN_MOTION":13.18687135,"ECCENTRICITY":0.00023108,"INCLINATION":87.9185,"RA_OF_ASC_NODE":30.8635,"ARG_OF_PERICENTER":86.1302,"MEAN_ANOMALY":274.0094,"EPHEMERIS_TYPE":0,"CLASSIFICATION_TYPE":"U","NORAD_CAT_ID":50498,"ELEMENT_SET_NO":999,"REV_AT_EPOCH":18480,"BSTAR":-0.0014009281,"MEAN_MOTION_DOT":-5.39e-6,"MEAN_MOTION_DDOT":0},{"OBJECT_NAME":"ONEWEB-0427","OBJECT_ID":"2021-132AG","EPOCH":"2025-09-11T03:01:55.121088","MEAN_MOTION":13.18685354,"ECCENTRICITY":0.00019192,"INCLINATION":87.9183,"RA_OF_ASC_NODE":30.8455,"ARG_OF_PERICENTER":100.0244,"MEAN_ANOMALY":260.1105,"EPHEMERIS_TYPE":0,"CLASSIFICATION_TYPE":"U","NORAD_CAT_ID":50499,"ELEMENT_SET_NO":999,"REV_AT_EPOCH":18483,"BSTAR":-0.00014938759,"MEAN_MOTION_DOT":-4.6e-7,"MEAN_MOTION_DDOT":0},{"OBJECT_NAME":"ONEWEB-0429","OBJECT_ID":"2021-132AH","EPOCH":"2025-09-11T02:42:54.655776","MEAN_MOTION":13.18688787,"ECCENTRICITY":0.00015772,"INCLINATION":87.9189,"RA_OF_ASC_NODE":30.8784,"ARG_OF_PERICENTER":96.7514,"MEAN_ANOMALY":263.3798,"EPHEMERIS_TYPE":0,"CLASSIFICATION_TYPE":"U","NORAD_CAT_ID":50500,"ELEMENT_SET_NO":999,"REV_AT_EPOCH":18480,"BSTAR":5.6135603e-5,"MEAN_MOTION_DOT":3.5e-7,"MEAN_MOTION_DDOT":0},{"OBJECT_NAME":"ONEWEB-0430","OBJECT_ID":"2021-132AJ","EPOCH":"2025-09-11T02:26:16.912032","MEAN_MOTION":13.186873,"ECCENTRICITY":0.00015915,"INCLINATION":87.9186,"RA_OF_ASC_NODE":30.8748,"ARG_OF_PERICENTER":105.8654,"MEAN_ANOMALY":254.2653,"EPHEMERIS_TYPE":0,"CLASSIFICATION_TYPE":"U","NORAD_CAT_ID":50501,"ELEMENT_SET_NO":999,"REV_AT_EPOCH":18484,"BSTAR":-8.480205e-6,"MEAN_MOTION_DOT":1.0e-7,"MEAN_MOTION_DDOT":0},{"OBJECT_NAME":"ONEWEB-0432","OBJECT_ID":"2021-132AK","EPOCH":"2025-09-11T03:11:38.286528","MEAN_MOTION":13.18689847,"ECCENTRICITY":0.00024298,"INCLINATION":87.9176,"RA_OF_ASC_NODE":30.8467,"ARG_OF_PERICENTER":113.8107,"MEAN_ANOMALY":246.328,"EPHEMERIS_TYPE":0,"CLASSIFICATION_TYPE":"U","NORAD_CAT_ID":50502,"ELEMENT_SET_NO":999,"REV_AT_EPOCH":18480,"BSTAR":9.2259919e-5,"MEAN_MOTION_DOT":4.9e-7,"MEAN_MOTION_DDOT":0},{"OBJECT_NAME":"ONEWEB-0440","OBJECT_ID":"2021-132AL","EPOCH":"2025-09-10T21:26:59.803008","MEAN_MOTION":13.18684425,"ECCENTRICITY":0.00016153,"INCLINATION":87.9189,"RA_OF_ASC_NODE":30.9055,"ARG_OF_PERICENTER":82.8156,"MEAN_ANOMALY":277.316,"EPHEMERIS_TYPE":0,"CLASSIFICATION_TYPE":"U","NORAD_CAT_ID":50503,"ELEMENT_SET_NO":999,"REV_AT_EPOCH":18476,"BSTAR":0.0001219751,"MEAN_MOTION_DOT":6.1e-7,"MEAN_MOTION_DDOT":0},{"OBJECT_NAME":"ONEWEB-0450","OBJECT_ID":"2021-132AM","EPOCH":"2025-09-11T02:45:30.265632","MEAN_MOTION":13.18686923,"ECCENTRICITY":0.00014137,"INCLINATION":87.9186,"RA_OF_ASC_NODE":30.8868,"ARG_OF_PERICENTER":100.0836,"MEAN_ANOMALY":260.0456,"EPHEMERIS_TYPE":0,"CLASSIFICATION_TYPE":"U","NORAD_CAT_ID":50504,"ELEMENT_SET_NO":999,"REV_AT_EPOCH":18482,"BSTAR":4.9129827e-5,"MEAN_MOTION_DOT":3.2e-7,"MEAN_MOTION_DDOT":0},{"OBJECT_NAME":"ONEWEB-0410","OBJECT_ID":"2022-012A","EPOCH":"2025-09-11T05:28:01.019712","MEAN_MOTION":13.17646392,"ECCENTRICITY":0.00031743,"INCLINATION":87.9045,"RA_OF_ASC_NODE":61.3303,"ARG_OF_PERICENTER":91.1589,"MEAN_ANOMALY":268.9906,"EPHEMERIS_TYPE":0,"CLASSIFICATION_TYPE":"U","NORAD_CAT_ID":51622,"ELEMENT_SET_NO":999,"REV_AT_EPOCH":17696,"BSTAR":-0.00034330412,"MEAN_MOTION_DOT":-1.2e-6,"MEAN_MOTION_DDOT":0},{"OBJECT_NAME":"ONEWEB-0411","OBJECT_ID":"2022-012B","EPOCH":"2025-09-11T00:03:53.693856","MEAN_MOTION":13.10371941,"ECCENTRICITY":0.0001362,"INCLINATION":87.8741,"RA_OF_ASC_NODE":91.9443,"ARG_OF_PERICENTER":103.8913,"MEAN_ANOMALY":256.2366,"EPHEMERIS_TYPE":0,"CLASSIFICATION_TYPE":"U","NORAD_CAT_ID":51623,"ELEMENT_SET_NO":999,"REV_AT_EPOCH":17272,"BSTAR":0.0019479446,"MEAN_MOTION_DOT":6.93e-6,"MEAN_MOTION_DDOT":0},{"OBJECT_NAME":"ONEWEB-0415","OBJECT_ID":"2022-012C","EPOCH":"2025-09-10T22:09:09.242496","MEAN_MOTION":13.1037393,"ECCENTRICITY":0.0001502,"INCLINATION":87.874,"RA_OF_ASC_NODE":91.9627,"ARG_OF_PERICENTER":94.4958,"MEAN_ANOMALY":265.6341,"EPHEMERIS_TYPE":0,"CLASSIFICATION_TYPE":"U","NORAD_CAT_ID":51624,"ELEMENT_SET_NO":999,"REV_AT_EPOCH":17271,"BSTAR":0.0018527388,"MEAN_MOTION_DOT":6.59e-6,"MEAN_MOTION_DDOT":0},{"OBJECT_NAME":"ONEWEB-0416","OBJECT_ID":"2022-012D","EPOCH":"2025-09-11T05:45:42.707232","MEAN_MOTION":13.10372554,"ECCENTRICITY":0.0001696,"INCLINATION":87.874,"RA_OF_ASC_NODE":91.9191,"ARG_OF_PERICENTER":88.2411,"MEAN_ANOMALY":271.8911,"EPHEMERIS_TYPE":0,"CLASSIFICATION_TYPE":"U","NORAD_CAT_ID":51625,"ELEMENT_SET_NO":999,"REV_AT_EPOCH":17279,"BSTAR":0.0017560554,"MEAN_MOTION_DOT":6.26e-6,"MEAN_MOTION_DDOT":0},{"OBJECT_NAME":"ONEWEB-0422","OBJECT_ID":"2022-012E","EPOCH":"2025-09-11T03:53:14.111232","MEAN_MOTION":13.17647996,"ECCENTRICITY":0.00011698,"INCLINATION":87.9043,"RA_OF_ASC_NODE":61.349,"ARG_OF_PERICENTER":71.032,"MEAN_ANOMALY":289.0939,"EPHEMERIS_TYPE":0,"CLASSIFICATION_TYPE":"U","NORAD_CAT_ID":51626,"ELEMENT_SET_NO":999,"REV_AT_EPOCH":17706,"BSTAR":1.3235941e-5,"MEAN_MOTION_DOT":1.8e-7,"MEAN_MOTION_DDOT":0},{"OBJECT_NAME":"ONEWEB-0423","OBJECT_ID":"2022-012F","EPOCH":"2025-09-11T03:43:30.829152","MEAN_MOTION":13.17651131,"ECCENTRICITY":0.00017011,"INCLINATION":87.9048,"RA_OF_ASC_NODE":61.3593,"ARG_OF_PERICENTER":88.1899,"MEAN_ANOMALY":271.9427,"EPHEMERIS_TYPE":0,"CLASSIFICATION_TYPE":"U","NORAD_CAT_ID":51627,"ELEMENT_SET_NO":999,"REV_AT_EPOCH":17695,"BSTAR":3.783728e-6,"MEAN_MOTION_DOT":1.4e-7,"MEAN_MOTION_DDOT":0},{"OBJECT_NAME":"ONEWEB-0425","OBJECT_ID":"2022-012G","EPOCH":"2025-09-11T06:00:02.383776","MEAN_MOTION":13.10369039,"ECCENTRICITY":0.00020037,"INCLINATION":87.874,"RA_OF_ASC_NODE":91.8865,"ARG_OF_PERICENTER":83.6149,"MEAN_ANOMALY":276.5207,"EPHEMERIS_TYPE":0,"CLASSIFICATION_TYPE":"U","NORAD_CAT_ID":51628,"ELEMENT_SET_NO":999,"REV_AT_EPOCH":17279,"BSTAR":0.00037105143,"MEAN_MOTION_DOT":1.42e-6,"MEAN_MOTION_DDOT":0},{"OBJECT_NAME":"ONEWEB-0428","OBJECT_ID":"2022-012H","EPOCH":"2025-09-11T00:01:29.999424","MEAN_MOTION":13.10372804,"ECCENTRICITY":0.00014947,"INCLINATION":87.8741,"RA_OF_ASC_NODE":91.9578,"ARG_OF_PERICENTER":82.8819,"MEAN_ANOMALY":277.2479,"EPHEMERIS_TYPE":0,"CLASSIFICATION_TYPE":"U","NORAD_CAT_ID":51629,"ELEMENT_SET_NO":999,"REV_AT_EPOCH":17272,"BSTAR":0.0020373259,"MEAN_MOTION_DOT":7.24e-6,"MEAN_MOTION_DDOT":0},{"OBJECT_NAME":"ONEWEB-0431","OBJECT_ID":"2022-012J","EPOCH":"2025-09-10T23:18:17.625312","MEAN_MOTION":13.10383838,"ECCENTRICITY":0.00012754,"INCLINATION":87.875,"RA_OF_ASC_NODE":91.9362,"ARG_OF_PERICENTER":104.1702,"MEAN_ANOMALY":255.9567,"EPHEMERIS_TYPE":0,"CLASSIFICATION_TYPE":"U","NORAD_CAT_ID":51630,"ELEMENT_SET_NO":999,"REV_AT_EPOCH":17277,"BSTAR":-0.0058811535,"MEAN_MOTION_DOT":-2.04e-5,"MEAN_MOTION_DDOT":0}]
