ONEWEB-0424             
1 50497U 21132AE  25254.12798090  .00000036  00000+0  58069-4 0  9998
2 50497  87.9186  30.8636 0001820 110.9519 249.1808 13.18685707184864
ONEWEB-0426             
1 50498U 21132AF  25254.08838016 -.00000539  00000+0 -14009-2 0  9991
2 50498  87.9185  30.8635 0002310  86.1302 274.0094 13.18687135184807
ONEWEB-0427             
1 50499U 21132AG  25254.12633242 -.00000046  00000+0 -14939-3 0  9997
2 50499  87.9183  30.8455 0001919 100.0244 260.1105 13.18685354184834
ONEWEB-0429             
1 50500U 21132AH  25254.11313259  .00000035  00000+0  56136-4 0  9994
2 50500  87.9189  30.8784 0001577  96.7514 263.3798 13.18688787184802
ONEWEB-0430             
1 50501U 21132AJ  25254.10158463  .00000010  00000+0 -84802-5 0  9994
2 50501  87.9186  30.8748 0001591 105.8654 254.2653 13.18687300184846
ONEWEB-0432             
1 50502U 21132AK  25254.13308202  .00000049  00000+0  92260-4 0  9993
2 50502  87.9176  30.8467 0002429 113.8107 246.3280 13.18689847184809
ONEWEB-0440             
1 50503U 21132AL  25253.89374772  .00000061  00000+0  12198-3 0  9996
2 50503  87.9189  30.9055 0001615  82.8156 277.3160 13.18684425184766
ONEWEB-0450             
1 50504U 21132AM  25254.11493363  .00000032  00000+0  49130-4 0  9996
2 50504  87.9186  30.8868 0001413 100.0836 260.0456 13.18686923184828
ONEWEB-0410             
1 51622U 22012A   25254.22778958 -.00000120  00000+0 -34330-3 0  9999
2 51622  87.9045  61.3303 0003174  91.1589 268.9906 13.17646392176966
ONEWEB-0411             
1 51623U 22012B   25254.00270479  .00000693  00000+0  19479-2 0  9990
2 51623  87.8741  91.9443 0001362 103.8913 256.2366 13.10371941172720
ONEWEB-0415             
1 51624U 22012C   25253.92302364  .00000659  00000+0  18527-2 0  9995
2 51624  87.8740  91.9627 0001502  94.4958 265.6341 13.10373930172710
ONEWEB-0416             
1 51625U 22012D   25254.24007763  .00000626  00000+0  17561-2 0  9998
2 51625  87.8740  91.9191 0001696  88.2411 271.8911 13.10372554172797
ONEWEB-0422             
1 51626U 22012E   25254.16196888  .00000018  00000+0  13236-4 0  9999
2 51626  87.9043  61.3490 0001169  71.0320 289.0939 13.17647996177060
ONEWEB-0423             
1 51627U 22012F   25254.15521793  .00000014  00000+0  37837-5 0  9996
2 51627  87.9048  61.3593 0001701  88.1899 271.9427 13.17651131176957
ONEWEB-0425             
1 51628U 22012G   25254.25002759  .00000142  00000+0  37105-3 0  9992
2 51628  87.8740  91.8865 0002003  83.6149 276.5207 13.10369039172791
ONEWEB-0428             
1 51629U 22012H   25254.00104166  .00000724  00000+0  20373-2 0  9995
2 51629  87.8741  91.9578 0001494  82.8819 277.2479 13.10372804172729
ONEWEB-0431             
1 51630U 22012J   25253.97103733 -.00002040  00000+0 -58812-2 0  9995
2 51630  87.8750  91.9362 0001275 104.1702 255.9567 13.10383838172773
